ONEWEB-0116             
1 48046U 21025E   25330.64657870 -.00000199  00000+0 -58072-3 0  9993
2 48046  87.9000   0.4660 0001886  97.7301 262.4042 13.13469669227069
ONEWEB-0150             
1 48047U 21025F   25331.00376693  .00000280  00000+0  73242-3 0  9991
2 48047  87.9000   0.3905 0001598  96.3874 263.7437 13.13469224227004
ONEWEB-0107             
1 48048U 21025G   25331.00546730  .00000279  00000+0  72903-3 0  9994
2 48048  87.8999   0.3870 0001682  86.6552 273.4769 13.13469265226988
ONEWEB-0101             
1 48049U 21025H   25331.04439529 -.00000269  00000+0 -77280-3 0  9990
2 48049  87.8990   0.4135 0001843  89.8279 270.3061 13.13469701226969
ONEWEB-0113             
1 48050U 21025J   25331.06684251  .00000248  00000+0  63887-3 0  9991
2 48050  87.8998   0.3400 0001764 102.7967 257.3360 13.13983855227064
ONEWEB-0112             
1 48051U 21025K   25331.01054297  .00000206  00000+0  52966-3 0  9998
2 48051  87.8998   0.3832 0001718  94.9420 265.1905 13.13469551227052
ONEWEB-0156             
1 48052U 21025L   25331.01899860  .00000063  00000+0  13896-3 0  9992
2 48052  87.9000   0.3930 0001678  91.8964 268.2358 13.13469325227034
ONEWEB-0161             
1 48053U 21025M   25331.06978678  .00000286  00000+0  74955-3 0  9993
2 48053  87.8991   0.3992 0001668  89.9699 270.1621 13.13469601226977
